IRIDIUM 119             
1 42959U 17061E   24218.74410391  .00000110  00000+0  32314-4 0  9998
2 42959  86.3990 309.6051 0002484  93.9536 266.1944 14.34217977357285
IRIDIUM 107             
1 42960U 17061F   24218.55382825 -.00000115  00000+0 -48275-4 0  9999
2 42960  86.3986 309.7016 0002274  90.7285 269.4171 14.34217227357272
IRIDIUM 132             
1 42961U 17061G   24218.49039872  .00000579  00000+0  19952-3 0  9995
2 42961  86.3991 309.7126 0002266  88.0998 272.0457 14.34218055357258
IRIDIUM 136             
1 42962U 17061H   24218.80118940  .00000035  00000+0  54304-5 0  9994
2 42962  86.3990 309.5861 0002595  95.7709 264.3783 14.34217904357317
IRIDIUM 139             
1 42963U 17061J   24218.31915052  .00000404  00000+0  13714-3 0  9998
2 42963  86.3991 309.8383 0002421  86.6255 273.5218 14.34217322357256
IRIDIUM 125             
1 42964U 17061K   24218.79484624  .00000120  00000+0  35706-4 0  9998
2 42964  86.3993 309.6885 0002737  92.1596 267.9913 14.34218178357332
IRIDIUM 135             
1 43070U 17083A   24218.83873692  .00000153  00000+0  47523-4 0  9999
2 43070  86.3931 246.3090 0001965  95.9157 264.2262 14.34218313346633
IRIDIUM 138             
1 43071U 17083B   24217.81758267  .00000090  00000+0  25140-4 0  9998
2 43071  86.3923 246.4473 0002653  94.7616 265.3883 14.34218393346474
